OBJECT_NAME,OBJECT_ID,EPOCH,MEAN_MOTION,ECCENTRICITY,INCLINATION,RA_OF_ASC_NODE,ARG_OF_PERICENTER,MEAN_ANOMALY,EPHEMERIS_TYPE,CLASSIFICATION_TYPE,NORAD_CAT_ID,ELEMENT_SET_NO,REV_AT_EPOCH,BSTAR,MEAN_MOTION_DOT,MEAN_MOTION_DDOT
HAWK-5A,2022-057AB,2026-06-07T22:45:28.833696,15.51062162,.00059857,97.6599,317.2031,106.6702,253.5207,0,U,52757,999,22491,.33294281E-3,.19303E-3,0
HAWK-6B,2023-011A,2026-06-07T09:53:13.460640,15.22842694,.00039992,40.4987,49.0839,308.4007,51.6443,0,U,55324,999,18635,.21516561E-3,.495E-4,0
HAWK-6C,2023-011C,2026-06-07T00:25:40.706400,15.22846078,.00045798,40.4979,48.2214,296.5763,63.4577,0,U,55326,999,18630,.22378503E-3,.5158E-4,0
HAWK-6A,2023-011D,2026-06-06T10:15:48.597120,15.22834948,.00042951,40.4987,53.2869,292.3056,67.7298,0,U,55327,999,18621,.24210657E-3,.5594E-4,0
HAWK-7A,2023-054P,2026-06-07T16:13:22.504224,15.27257398,.0004571,97.2715,46.2556,79.2385,280.9368,0,U,56191,999,17557,.74160229E-4,.1909E-4,0
HAWK-7B,2023-054R,2026-06-08T04:48:02.082240,15.27268920,.00039993,97.2737,45.0263,86.3301,273.8395,0,U,56193,999,17565,.19369307E-3,.5103E-4,0
HAWK-7C,2023-054Y,2026-06-08T04:47:52.335456,15.27265730,.00041117,97.2715,45.7977,78.6000,281.5702,0,U,56200,999,17565,.18637917E-3,.4908E-4,0
